IRIDIUM 7 [-]           
1 24793U 97020B   24061.57750544  .00000561  00000+0  18977-3 0  9999
2 24793  86.4003  14.8698 0001959  89.7822 270.3599 14.35098433404096
IRIDIUM 5 [-]           
1 24795U 97020D   24061.62089263  .00004096  00000+0  39845-3 0  9994
2 24795  86.3911 300.0814 0125895  25.1785 335.5504 14.86407972415082
IRIDIUM 4 [-]           
1 24796U 97020E   24061.58369418  .00000645  00000+0  21522-3 0  9992
2 24796  86.4002  12.0611 0002100  83.6724 276.4712 14.36013027404659
IRIDIUM 914 [-]         
1 24836U 97030A   24061.83227501  .00000698  00000+0  21632-3 0  9992
2 24836  86.3965  21.9380 0002385  39.5810 320.5562 14.39851030401236
IRIDIUM 16 [-]          
1 24841U 97030F   24061.44192815  .00000658  00000+0  21240-3 0  9995
2 24841  86.4022  43.8001 0003067 131.1070 229.0393 14.37734621399050
IRIDIUM 911 [-]         
1 24842U 97030G   24061.66439818  .00000844  00000+0  22970-3 0  9995
2 24842  86.4448  42.9239 0012527 226.5150 133.5012 14.46325515406734
IRIDIUM 17 [-]          
1 24870U 97034B   24061.55183431  .00000538  00000+0  17567-3 0  9991
2 24870  86.3902  73.3993 0003760 103.2894 256.8723 14.36824694395690
IRIDIUM 920 [-]         
1 24871U 97034C   24061.69943788  .00000594  00000+0  18014-3 0  9996
2 24871  86.3942  53.6517 0010948 189.3769 170.7228 14.40550684398798
